[{"OBJECT_NAME":"SITRO-AIS 8 (ANOKHIN)","OBJECT_ID":"2023-091AD","EPOCH":"2026-03-09T23:44:40.058592","MEAN_MOTION":15.29359179,"ECCENTRICITY":0.0012509,"INCLINATION":97.5169,"RA_OF_ASC_NODE":133.2823,"ARG_OF_PERICENTER":92.0171,"MEAN_ANOMALY":268.2501,"EPHEMERIS_TYPE":0,"CLASSIFICATION_TYPE":"U","NORAD_CAT_ID":57193,"ELEMENT_SET_NO":999,"REV_AT_EPOCH":14927,"BSTAR":0.00064982524,"MEAN_MOTION_DOT":0.00018494,"MEAN_MOTION_DDOT":0},{"OBJECT_NAME":"STARLINK-32909","OBJECT_ID":"2025-024R","EPOCH":"2026-03-09T02:33:02.283552","MEAN_MOTION":15.27571188,"ECCENTRICITY":0.00014763,"INCLINATION":43.0022,"RA_OF_ASC_NODE":328.9255,"ARG_OF_PERICENTER":288.4583,"MEAN_ANOMALY":71.6108,"EPHEMERIS_TYPE":0,"CLASSIFICATION_TYPE":"U","NORAD_CAT_ID":62894,"ELEMENT_SET_NO":999,"REV_AT_EPOCH":6217,"BSTAR":0.0011612019,"MEAN_MOTION_DOT":0.00031821,"MEAN_MOTION_DDOT":0}]
